BLUEWALKER-3            
1 53807U 22111AL  26201.44082023  .00003279  00000+0  94838-4 0  9990
2 53807  53.2275 237.8077 0004677 289.4443  70.6056 15.38642700215324
